{"type": "FeatureCollection", "features": [ {"type": "Feature", "properties": {"norad_id": 29795, "name": "FENGYUN 1C DEB", "group": "fengyun-1c-debris", "lat": -44.44478883775678, "lon": 120.08710270714677, "alt_km": 851.3666735328452, "timestamp": "2025-12-07T16:44:04.182577+00:00", "meta": {"OBJECT_NAME": "FENGYUN 1C DEB", "OBJECT_ID": "1999-025CM", "EPOCH": "2025-12-06T20:53:28.329792", "MEAN_MOTION": 13.92904611, "ECCENTRICITY": 0.01110503, "INCLINATION": 98.87, "RA_OF_ASC_NODE": 110.4848, "ARG_OF_PERICENTER": 292.4407, "MEAN_ANOMALY": 198.2819, "EPHEMERIS_TYPE": 0, "CLASSIFICATION_TYPE": "U", "NORAD_CAT_ID": 29795, "ELEMENT_SET_NO": 999, "REV_AT_EPOCH": 95983, "BSTAR": 0.00027397759, "MEAN_MOTION_DOT": 3.31e-06, "MEAN_MOTION_DDOT": 0}, "tle": {"line1": "1 29795U 99025CM  25340.87046678  .00000331  00000+0  27398-3 0  9995", "line2": "2 29795  98.8700 110.4848 0111050 292.4407 198.2819 13.92904611959836"}}, "geometry": {"type": "Point", "coordinates": [120.08710270714677, -44.44478883775678]}}, {"type": "Feature", "properties": {"norad_id": 29796, "name": "FENGYUN 1C DEB", "group": "fengyun-1c-debris", "lat": -52.936025010000364, "lon": 45.55013697233837, "alt_km": 824.1430628132885, "timestamp": "2025-12-07T16:44:04.182587+00:00", "meta": {"OBJECT_NAME": "FENGYUN 1C DEB", "OBJECT_ID": "1999-025CN", "EPOCH": "2025-12-06T22:53:06.078912", "MEAN_MOTION": 14.12315379, "ECCENTRICITY": 0.00517037, "INCLINATION": 98.8653, "RA_OF_ASC_NODE": 32.8893, "ARG_OF_PERICENTER": 284.5267, "MEAN_ANOMALY": 202.1845, "EPHEMERIS_TYPE": 0, "CLASSIFICATION_TYPE": "U", "NORAD_CAT_ID": 29796, "ELEMENT_SET_NO": 999, "REV_AT_EPOCH": 96979, "BSTAR": 0.0010962363, "MEAN_MOTION_DOT": 2e-05, "MEAN_MOTION_DDOT": 0}, "tle": {"line1": "1 29796U 99025CN  25340.95354258  .00002000  00000+0  10962-2 0  9994", "line2": "2 29796  98.8653  32.8893 0051703 284.5267 202.1845 14.12315379969795"}}, "geometry": {"type": "Point", "coordinates": [45.55013697233837, -52.936025010000364]}}, {"type": "Feature", "properties": {"norad_id": 29798, "name": "FENGYUN 1C DEB", "group": "fengyun-1c-debris", "lat": 2.486876634949662, "lon": -134.06684812847365, "alt_km": 923.3777594635394, "timestamp": "2025-12-07T16:44:04.182597+00:00", "meta": {"OBJECT_NAME": "FENGYUN 1C DEB", "OBJECT_ID": "1999-025CQ", "EPOCH": "2025-12-06T18:10:02.393760", "MEAN_MOTION": 13.99533247, "ECCENTRICITY": 0.01113816, "INCLINATION": 99.2955, "RA_OF_ASC_NODE": 44.5712, "ARG_OF_PERICENTER": 288.8479, "MEAN_ANOMALY": 194.7641, "EPHEMERIS_TYPE": 0, "CLASSIFICATION_TYPE": "U", "NORAD_CAT_ID": 29798, "ELEMENT_SET_NO": 999, "REV_AT_EPOCH": 95841, "BSTAR": 0.0022639895, "MEAN_MOTION_DOT": 3.438e-05, "MEAN_MOTION_DDOT": 0}, "tle": {"line1": "1 29798U 99025CQ  25340.75697215  .00003438  00000+0  22640-2 0  9999", "line2": "2 29798  99.2955  44.5712 0111381 288.8479 194.7641 13.99533247958415"}}, "geometry": {"type": "Point", "coordinates": [-134.06684812847365, 2.486876634949662]}}, {"type": "Feature", "properties": {"norad_id": 29800, "name": "FENGYUN 1C DEB", "group": "fengyun-1c-debris", "lat": 6.026357595436769, "lon": 2.9069825185649223, "alt_km": 955.4587931787028, "timestamp": "2025-12-07T16:44:04.182607+00:00", "meta": {"OBJECT_NAME": "FENGYUN 1C DEB", "OBJECT_ID": "1999-025CS", "EPOCH": "2025-12-05T13:58:13.821024", "MEAN_MOTION": 13.98505687, "ECCENTRICITY": 0.01332695, "INCLINATION": 98.2902, "RA_OF_ASC_NODE": 1.8756, "ARG_OF_PERICENTER": 247.3523, "MEAN_ANOMALY": 274.4096, "EPHEMERIS_TYPE": 0, "CLASSIFICATION_TYPE": "U", "NORAD_CAT_ID": 29800, "ELEMENT_SET_NO": 999, "REV_AT_EPOCH": 95476, "BSTAR": 0.0030193564, "MEAN_MOTION_DOT": 4.629e-05, "MEAN_MOTION_DDOT": 0}, "tle": {"line1": "1 29800U 99025CS  25339.58210441  .00004629  00000+0  30194-2 0  9990", "line2": "2 29800  98.2902   1.8756 0133269 247.3523 274.4096 13.98505687954763"}}, "geometry": {"type": "Point", "coordinates": [2.9069825185649223, 6.026357595436769]}}, {"type": "Feature", "properties": {"norad_id": 29801, "name": "FENGYUN 1C DEB", "group": "fengyun-1c-debris", "lat": -26.523466844860046, "lon": -112.95036885051428, "alt_km": 730.7973838535936, "timestamp": "2025-12-07T16:44:04.182618+00:00", "meta": {"OBJECT_NAME": "FENGYUN 1C DEB", "OBJECT_ID": "1999-025CT", "EPOCH": "2025-12-06T17:45:06.610176", "MEAN_MOTION": 14.35885564, "ECCENTRICITY": 0.01029593, "INCLINATION": 98.7949, "RA_OF_ASC_NODE": 241.6414, "ARG_OF_PERICENTER": 285.2618, "MEAN_ANOMALY": 139.8248, "EPHEMERIS_TYPE": 0, "CLASSIFICATION_TYPE": "U", "NORAD_CAT_ID": 29801, "ELEMENT_SET_NO": 999, "REV_AT_EPOCH": 98855, "BSTAR": 0.00038684991, "MEAN_MOTION_DOT": 1.142e-05, "MEAN_MOTION_DDOT": 0}, "tle": {"line1": "1 29801U 99025CT  25340.73965984  .00001142  00000+0  38685-3 0  9990", "line2": "2 29801  98.7949 241.6414 0102959 285.2618 139.8248 14.35885564988557"}}, "geometry": {"type": "Point", "coordinates": [-112.95036885051428, -26.523466844860046]}}, {"type": "Feature", "properties": {"norad_id": 29802, "name": "FENGYUN 1C DEB", "group": "fengyun-1c-debris", "lat": -17.323304760621376, "lon": -92.11737067061021, "alt_km": 715.3220237644227, "timestamp": "2025-12-07T16:44:04.182628+00:00", "meta": {"OBJECT_NAME": "FENGYUN 1C DEB", "OBJECT_ID": "1999-025CU", "EPOCH": "2025-12-06T20:40:34.012128", "MEAN_MOTION": 14.62077228, "ECCENTRICITY": 0.0037004, "INCLINATION": 98.6201, "RA_OF_ASC_NODE": 89.7232, "ARG_OF_PERICENTER": 356.9093, "MEAN_ANOMALY": 124.1636, "EPHEMERIS_TYPE": 0, "CLASSIFICATION_TYPE": "U", "NORAD_CAT_ID": 29802, "ELEMENT_SET_NO": 999, "REV_AT_EPOCH": 98387, "BSTAR": 0.0041244829, "MEAN_MOTION_DOT": 0.00020925, "MEAN_MOTION_DDOT": 0}, "tle": {"line1": "1 29802U 99025CU  25340.86150477  .00020925  00000+0  41245-2 0  9993", "line2": "2 29802  98.6201  89.7232 0037004 356.9093 124.1636 14.62077228983876"}}, "geometry": {"type": "Point", "coordinates": [-92.11737067061021, -17.323304760621376]}}, {"type": "Feature", "properties": {"norad_id": 29804, "name": "FENGYUN 1C DEB", "group": "fengyun-1c-debris", "lat": 42.07656178456185, "lon": 178.10432770406547, "alt_km": 946.0941708869213, "timestamp": "2025-12-07T16:44:04.182638+00:00", "meta": {"OBJECT_NAME": "FENGYUN 1C DEB", "OBJECT_ID": "1999-025CW", "EPOCH": "2025-12-06T18:42:32.534208", "MEAN_MOTION": 14.04318289, "ECCENTRICITY": 0.00974278, "INCLINATION": 98.8055, "RA_OF_ASC_NODE": 349.1701, "ARG_OF_PERICENTER": 318.616, "MEAN_ANOMALY": 221.5849, "EPHEMERIS_TYPE": 0, "CLASSIFICATION_TYPE": "U", "NORAD_CAT_ID": 29804, "ELEMENT_SET_NO": 999, "REV_AT_EPOCH": 96810, "BSTAR": 0.00028209984, "MEAN_MOTION_DOT": 4.24e-06, "MEAN_MOTION_DDOT": 0}, "tle": {"line1": "1 29804U 99025CW  25340.77954322  .00000424  00000+0  28210-3 0  9996", "line2": "2 29804  98.8055 349.1701 0097427 318.6160 221.5849 14.04318289968104"}}, "geometry": {"type": "Point", "coordinates": [178.10432770406547, 42.07656178456185]}}, {"type": "Feature", "properties": {"norad_id": 29805, "name": "FENGYUN 1C DEB", "group": "fengyun-1c-debris", "lat": 29.125787869831978, "lon": -141.63939485732885, "alt_km": 992.2046863036867, "timestamp": "2025-12-07T16:44:04.182649+00:00", "meta": {"OBJECT_NAME": "FENGYUN 1C DEB", "OBJECT_ID": "1999-025CX", "EPOCH": "2025-12-06T03:14:52.248480", "MEAN_MOTION": 13.72653353, "ECCENTRICITY": 0.01877681, "INCLINATION": 99.456, "RA_OF_ASC_NODE": 31.4907, "ARG_OF_PERICENTER": 246.9954, "MEAN_ANOMALY": 111.1292, "EPHEMERIS_TYPE": 0, "CLASSIFICATION_TYPE": "U", "NORAD_CAT_ID": 29805, "ELEMENT_SET_NO": 999, "REV_AT_EPOCH": 94612, "BSTAR": 0.00028679835, "MEAN_MOTION_DOT": 2.53e-06, "MEAN_MOTION_DDOT": 0}, "tle": {"line1": "1 29805U 99025CX  25340.13532695  .00000253  00000+0  28680-3 0  9993", "line2": "2 29805  99.4560  31.4907 0187768 246.9954 111.1292 13.72653353946126"}}, "geometry": {"type": "Point", "coordinates": [-141.63939485732885, 29.125787869831978]}}, {"type": "Feature", "properties": {"norad_id": 29806, "name": "FENGYUN 1C DEB", "group": "fengyun-1c-debris", "lat": 6.371324083952712, "lon": -3.3507631261555346, "alt_km": 857.9165449128595, "timestamp": "2025-12-07T16:44:04.182659+00:00", "meta": {"OBJECT_NAME": "FENGYUN 1C DEB", "OBJECT_ID": "1999-025CY", "EPOCH": "2025-12-06T19:27:46.072224", "MEAN_MOTION": 14.11989297, "ECCENTRICITY": 0.00274646, "INCLINATION": 98.7131, "RA_OF_ASC_NODE": 356.7693, "ARG_OF_PERICENTER": 269.3056, "MEAN_ANOMALY": 274.1486, "EPHEMERIS_TYPE": 0, "CLASSIFICATION_TYPE": "U", "NORAD_CAT_ID": 29806, "ELEMENT_SET_NO": 999, "REV_AT_EPOCH": 97055, "BSTAR": 0.00091318187, "MEAN_MOTION_DOT": 1.634e-05, "MEAN_MOTION_DDOT": 0}, "tle": {"line1": "1 29806U 99025CY  25340.81094991  .00001634  00000+0  91318-3 0  9993", "line2": "2 29806  98.7131 356.7693 0027464 269.3056 274.1486 14.11989297970558"}}, "geometry": {"type": "Point", "coordinates": [-3.3507631261555346, 6.371324083952712]}}, {"type": "Feature", "properties": {"norad_id": 29807, "name": "FENGYUN 1C DEB", "group": "fengyun-1c-debris", "lat": 48.18110488876278, "lon": 176.381921563028, "alt_km": 906.675224389216, "timestamp": "2025-12-07T16:44:04.182669+00:00", "meta": {"OBJECT_NAME": "FENGYUN 1C DEB", "OBJECT_ID": "1999-025CZ", "EPOCH": "2025-12-06T23:04:09.622272", "MEAN_MOTION": 14.086491, "ECCENTRICITY": 0.00798122, "INCLINATION": 98.7546, "RA_OF_ASC_NODE": 345.7498, "ARG_OF_PERICENTER": 348.3339, "MEAN_ANOMALY": 11.598, "EPHEMERIS_TYPE": 0, "CLASSIFICATION_TYPE": "U", "NORAD_CAT_ID": 29807, "ELEMENT_SET_NO": 999, "REV_AT_EPOCH": 97013, "BSTAR": 0.00046432877, "MEAN_MOTION_DOT": 7.8e-06, "MEAN_MOTION_DDOT": 0}, "tle": {"line1": "1 29807U 99025CZ  25340.96122248  .00000780  00000+0  46433-3 0  9996", "line2": "2 29807  98.7546 345.7498 0079812 348.3339  11.5980 14.08649100970134"}}, "geometry": {"type": "Point", "coordinates": [176.381921563028, 48.18110488876278]}}]}